[{"OBJECT_ID":"2007-009A","OBJECT_NAME":"ANIK F3","NORAD_CAT_ID":"31102","OBJECT_TYPE":"PAYLOAD","PERIOD":"1436.102","INCLINATION":"0.0169","APOGEE":"35793.816","PERIGEE":"35779.581","ECCENTRICITY":"0.0001688","MEAN_MOTION":"1.0027142","TLE_LINE1":"1 31102U 07009A   16239.53750052 -.00000030  00000-0  00000+0 0  9994","TLE_LINE2":"2 31102   0.0169 127.4464 0001688  28.9865 253.5403  1.00271420 34426","LAUNCH_DATE":"2007-04-09","LAUNCH_SITE":"TYURATAM MISSILE AND SPACE COMPLEX","OWNER":"CANADA","ORBIT_TYPE":"Geosynchronous","OPERATIONAL_STATUS":"Operational","satInfo":{"lng":-106.51760178340813,"lat":1.4522474515414927,"elevation":-7.154925211674473,"azimuth":61.51760178340809,"range":42470.930554851686,"height":35775.598476128915,"velocity":3.0752118533740798},"x":-343,"y":102,"dx":-9,"dy":29},{"OBJECT_ID":"2007-016A","OBJECT_NAME":"ASTRA 1L","NORAD_CAT_ID":"31306","OBJECT_TYPE":"PAYLOAD","PERIOD":"1436.067","INCLINATION":"0.1034","APOGEE":"35795.184","PERIGEE":"35776.851","ECCENTRICITY":"0.0002174","MEAN_MOTION":"1.00273852","TLE_LINE1":"1 31306U 07016A   16238.67879186  .00000093  00000-0  00000+0 0  9990","TLE_LINE2":"2 31306   0.1034 294.5252 0002174 286.3834  17.0163  1.00273852 34115","LAUNCH_DATE":"2007-05-04","LAUNCH_SITE":"FRENCH GUIANA","OWNER":"SOCIÉTÉ EUROPÉENNE DES SATELLITES","ORBIT_TYPE":"Geosynchronous","OPERATIONAL_STATUS":"Operational","satInfo":{"lng":34.799921675864454,"lat":1.989008381381833,"elevation":-6.628374767611566,"azimuth":280.2000783241355,"range":42411.717674551546,"height":35775.46069257318,"velocity":3.074835226809506},"x":204,"y":-294,"dx":25,"dy":-18},{"OBJECT_ID":"2007-016B","OBJECT_NAME":"GALAXY 17","NORAD_CAT_ID":"31307","OBJECT_TYPE":"PAYLOAD","PERIOD":"1436.112","INCLINATION":"0.037","APOGEE":"35800.417","PERIGEE":"35773.389","ECCENTRICITY":"0.0003205","MEAN_MOTION":"1.00270691","TLE_LINE1":"1 31307U 07016B   16239.48495310 -.00000203  00000-0  00000+0 0  9998","TLE_LINE2":"2 31307   0.0370 331.0028 0003205 194.3201 253.3977  1.00270691 34169","LAUNCH_DATE":"2007-05-04","LAUNCH_SITE":"FRENCH GUIANA","OWNER":"UNITED STATES OF AMERICA","ORBIT_TYPE":"Geosynchronous","OPERATIONAL_STATUS":"Operational","satInfo":{"lng":-103.8707050074131,"lat":-1.1344920897633473,"elevation":-9.680452009923343,"azimuth":58.87070500741302,"range":42765.244113672554,"height":35786.42535119496,"velocity":3.0749515642779204},"x":-347,"y":86,"dx":-7,"dy":30},{"OBJECT_ID":"2007-031A","OBJECT_NAME":"CHINASAT 6B","NORAD_CAT_ID":"31800","OBJECT_TYPE":"PAYLOAD","PERIOD":"1436.103","INCLINATION":"0.0121","APOGEE":"35798.768","PERIGEE":"35774.667","ECCENTRICITY":"0.0002858","MEAN_MOTION":"1.00271354","TLE_LINE1":"1 31800U 07031A   16238.90950943 -.00000389 +00000-0 +00000-0 0  9993","TLE_LINE2":"2 31800 000.0121 101.8224 0002858 066.9376 248.7894 01.00271354033513","LAUNCH_DATE":"2007-07-05","LAUNCH_SITE":"Xichang Space Center, China","OWNER":"PEOPLES REPUBLIC OF CHINA","ORBIT_TYPE":"Geosynchronous","OPERATIONAL_STATUS":"Operational","satInfo":{"lng":58.357452067775725,"lat":-1.4132174452230561,"elevation":-9.945689338249265,"azimuth":256.64254793222426,"range":42826.312932391316,"height":35817.40008020755,"velocity":3.0732223824106204},"x":305,"y":-188,"dx":16,"dy":-26},{"OBJECT_ID":"2007-032A","OBJECT_NAME":"DIRECTV 10","NORAD_CAT_ID":"31862","OBJECT_TYPE":"PAYLOAD","PERIOD":"1436.122","INCLINATION":"0.0484","APOGEE":"35790.289","PERIGEE":"35783.896","ECCENTRICITY":"7.58e-05","MEAN_MOTION":"1.00270016","TLE_LINE1":"1 31862U 07032A   16238.35777370 -.00000129  00000-0  00000+0 0  9993","TLE_LINE2":"2 31862   0.0484 297.3619 0000758 296.9492 125.6763  1.00270016 33481","LAUNCH_DATE":"2007-07-07","LAUNCH_SITE":"TYURATAM MISSILE AND SPACE COMPLEX","OWNER":"UNITED STATES OF AMERICA","ORBIT_TYPE":"Geosynchronous","OPERATIONAL_STATUS":"Operational","satInfo":{"lng":-106.0022074049801,"lat":-1.2699387131875053,"elevation":-9.812840648195838,"azimuth":61.002207404980076,"range":42777.63707904546,"height":35783.99719364771,"velocity":3.074905074706083},"x":-344,"y":99,"dx":-8,"dy":30},{"OBJECT_ID":"2007-036A","OBJECT_NAME":"SPACEWAY 3","NORAD_CAT_ID":"32018","OBJECT_TYPE":"PAYLOAD","PERIOD":"1436.063","INCLINATION":"0.009","APOGEE":"35790.121","PERIGEE":"35781.756","ECCENTRICITY":"9.92e-05","MEAN_MOTION":"1.00274132","TLE_LINE1":"1 32018U 07036A   16239.31223166 -.00000180  00000-0  00000+0 0  9994","TLE_LINE2":"2 32018   0.0090  69.4330 0000992   2.5254 280.4744  1.00274132 33205","LAUNCH_DATE":"2007-08-14","LAUNCH_SITE":"FRENCH GUIANA","OWNER":"UNITED STATES OF AMERICA","ORBIT_TYPE":"Geosynchronous","OPERATIONAL_STATUS":"Operational","satInfo":{"lng":-102.94472873164815,"lat":-0.5042323031349998,"elevation":-9.064343599476514,"azimuth":57.94472873164811,"range":42704.943428700404,"height":35795.140310217655,"velocity":3.0742398729849914},"x":-349,"y":80,"dx":-7,"dy":30},{"OBJECT_ID":"2007-036B","OBJECT_NAME":"BSAT-3A","NORAD_CAT_ID":"32019","OBJECT_TYPE":"PAYLOAD","PERIOD":"1436.212","INCLINATION":"0.0471","APOGEE":"35805.784","PERIGEE":"35771.949","ECCENTRICITY":"0.0004012","MEAN_MOTION":"1.00263688","TLE_LINE1":"1 32019U 07036B   16238.34760546  .00000000  00000-0  10000-3 0  9990","TLE_LINE2":"2 32019   0.0471 232.8391 0004012 320.6844  15.4535  1.00263688 33138","LAUNCH_DATE":"2007-08-14","LAUNCH_SITE":"FRENCH GUIANA","OWNER":"JAPAN","ORBIT_TYPE":"Geosynchronous","OPERATIONAL_STATUS":"Operational","satInfo":{"lng":47.38289647531248,"lat":-0.021185761674972367,"elevation":-8.588632222066893,"azimuth":267.61710352468754,"range":42672.719217176375,"height":35816.054512798764,"velocity":3.0729955750380222},"x":264,"y":-243,"dx":21,"dy":-23},{"OBJECT_ID":"2007-036D","OBJECT_NAME":"ARIANE 5 R/B","NORAD_CAT_ID":"32021","OBJECT_TYPE":"ROCKET BODY","PERIOD":"608.209","INCLINATION":"1.7902","APOGEE":"34508.210","PERIGEE":"293.744","ECCENTRICITY":"0.7194227","MEAN_MOTION":"2.36760528","TLE_LINE1":"1 32021U 07036D   16238.94776098 +.00000334 +00000-0 +26641-3 0  9996","TLE_LINE2":"2 32021 001.7902 212.2733 7194227 052.7544 353.1602 02.36760528076460","LAUNCH_DATE":"2007-08-14","LAUNCH_SITE":"FRENCH GUIANA","OWNER":"FRANCE","ORBIT_TYPE":"Highly Elliptical Orbit","OPERATIONAL_STATUS":"N/A, derelict rocket body","satInfo":{"lng":-127.77415960809775,"lat":0.4818156671202477,"elevation":-8.520654158619962,"azimuth":82.77415960809772,"range":40627.40801462914,"height":33802.26583843402,"velocity":1.740386292066042},"x":-267,"y":207,"dx":-11,"dy":14},{"OBJECT_ID":"2007-037A","OBJECT_NAME":"INSAT 4CR","NORAD_CAT_ID":"32050","OBJECT_TYPE":"PAYLOAD","PERIOD":"1436.103","INCLINATION":"0.0414","APOGEE":"35812.135","PERIGEE":"35761.301","ECCENTRICITY":"0.0006028","MEAN_MOTION":"1.00271351","TLE_LINE1":"1 32050U 07037A   16238.86269574 -.00000105 +00000-0 +00000-0 0  9991","TLE_LINE2":"2 32050 000.0414 282.8523 0006028 325.8232 110.4380 01.00271351015476","LAUNCH_DATE":"2007-09-02","LAUNCH_SITE":"SIRHARIKOTA","OWNER":"INDIA","ORBIT_TYPE":"Geosynchronous","OPERATIONAL_STATUS":"Operational","satInfo":{"lng":76.49751416047432,"lat":0.7906494450581572,"elevation":-7.795995170179255,"azimuth":238.5024858395257,"range":42578.02441151603,"height":35810.36526919403,"velocity":3.072944933725522},"x":348,"y":-84,"dx":7,"dy":-30},{"OBJECT_ID":"2007-044A","OBJECT_NAME":"OPTUS D2","NORAD_CAT_ID":"32252","OBJECT_TYPE":"PAYLOAD","PERIOD":"1436.184","INCLINATION":"0.0188","APOGEE":"35803.486","PERIGEE":"35773.143","ECCENTRICITY":"0.0003598","MEAN_MOTION":"1.00265656","TLE_LINE1":"1 32252U 07044A   16237.83626765  .00000000  00000-0  10000-3 0  9995","TLE_LINE2":"2 32252   0.0188   6.9762 0003598 151.0649 268.5001  1.00265656 32518","LAUNCH_DATE":"2007-10-05","LAUNCH_SITE":"FRENCH GUIANA","OWNER":"AUSTRALIA","ORBIT_TYPE":"Geosynchronous","OPERATIONAL_STATUS":"Operational","satInfo":{"lng":-147.735867817637,"lat":-0.09605332506871446,"elevation":-8.665378831820833,"azimuth":102.73586781763701,"range":42663.00050470902,"height":35797.92909227337,"velocity":3.0747814701580136},"x":-191,"y":303,"dx":-26,"dy":16},{"OBJECT_ID":"2007-044B","OBJECT_NAME":"INTELSAT 11 (PAS 11)","NORAD_CAT_ID":"32253","OBJECT_TYPE":"PAYLOAD","PERIOD":"1436.086","INCLINATION":"0.04","APOGEE":"35798.428","PERIGEE":"35774.377","ECCENTRICITY":"0.0002852","MEAN_MOTION":"1.00272478","TLE_LINE1":"1 32253U 07044B   16239.32519558 -.00000297  00000-0  00000+0 0  9997","TLE_LINE2":"2 32253   0.0400 249.3364 0002852 278.2851 241.4307  1.00272478 32616","LAUNCH_DATE":"2007-10-05","LAUNCH_SITE":"FRENCH GUIANA","OWNER":"INTERNATIONAL TELECOMMUNICATIONS SATELLITE ORGANIZATION (INTELSAT)","ORBIT_TYPE":"Geosynchronous","OPERATIONAL_STATUS":"Operational","satInfo":{"lng":-43.437199299952454,"lat":1.9956046047123632,"elevation":-6.6191441302442495,"azimuth":358.4371992999524,"range":42424.4522443201,"height":35789.07532941302,"velocity":3.074424791494856},"x":-246,"y":-260,"dx":22,"dy":21},{"OBJECT_ID":"2007-056A","OBJECT_NAME":"STAR ONE C1","NORAD_CAT_ID":"32293","OBJECT_TYPE":"PAYLOAD","PERIOD":"1436.102","INCLINATION":"0.0208","APOGEE":"35798.443","PERIGEE":"35774.965","ECCENTRICITY":"0.0002784","MEAN_MOTION":"1.00271402","TLE_LINE1":"1 32293U 07056A   16238.25293134 -.00000302 +00000-0 +00000-0 0  9992","TLE_LINE2":"2 32293 000.0208 234.1530 0002784 298.4686 187.3771 01.00271402015853","LAUNCH_DATE":"2007-11-14","LAUNCH_SITE":"FRENCH GUIANA","OWNER":"BRAZIL","ORBIT_TYPE":"Geosynchronous","OPERATIONAL_STATUS":"Operational","satInfo":{"lng":-78.51352757756214,"lat":1.432479469326271,"elevation":-7.169959163707783,"azimuth":33.513527577562094,"range":42494.3975454126,"height":35797.13350720606,"velocity":3.074420999737014},"x":-351,"y":-71,"dx":6,"dy":30}]